ONEWEB-0068             
1 45446U 20020Y   26164.64368350 -.00000212  00000+0 -63482-3 0  9993
2 45446  87.8900  21.7690 0001768  78.5093 281.6234 13.11419849302132
ONEWEB-0046             
1 45447U 20020Z   26164.63533319 -.00000470  00000+0 -13627-2 0  9993
2 45447  87.8892  21.7770 0002036  79.6162 280.5195 13.11416686302141
ONEWEB-0063             
1 45448U 20020AA  26164.58801149  .00000518  00000+0  14247-2 0  9997
2 45448  87.8899  21.7848 0002131  86.1333 274.0039 13.11419843302226
ONEWEB-0019             
1 45449U 20020AB  26164.62672457 -.00000632  00000+0 -18193-2 0  9994
2 45449  87.8892  21.7636 0001700  89.1099 271.0224 13.11416293302070
ONEWEB-0094             
1 45450U 20020AC  26164.63392939 -.00000028  00000+0 -10590-3 0  9994
2 45450  87.9146   6.5556 0001629  84.5955 275.5362 13.17647309305847
ONEWEB-0087             
1 45451U 20020AD  26164.59791419  .00000516  00000+0  14214-2 0  9992
2 45451  87.8908  21.7565 0001713  75.8898 284.2420 13.11416869302113
ONEWEB-0082             
1 45452U 20020AE  26164.59453426  .00000552  00000+0  15229-2 0  9993
2 45452  87.8899  21.7741 0001918  70.9223 289.2113 13.11417655302202
ONEWEB-0050             
1 45453U 20020AF  26164.58391744  .00002410  00000+0  24562-3 0  9993
2 45453  88.9301 233.6995 0003714  35.1922 324.9551 14.90368033339849
ONEWEB-0034             
1 45454U 20020AG  26164.63208614 -.00000501  00000+0 -14483-2 0  9994
2 45454  87.8897  21.7762 0001773  84.7348 275.3983 13.11427136302122
ONEWEB-0060             
1 45455U 20020AH  26164.58702670  .00000509  00000+0  14002-2 0  9993
2 45455  87.8893  21.7834 0001460  50.1528 309.9729 13.11418783302073
ONEWEB-0086             
1 45456U 20020AJ  26164.64198497 -.00000251  00000+0 -74484-3 0  9994
2 45456  87.8901  21.7678 0001070  75.5669 284.5578 13.11417396302141
ONEWEB-0088             
1 45457U 20020AK  26164.62008233 -.00000340  00000+0 -99543-3 0  9993
2 45457  87.8907  21.7442 0002194  80.9863 279.1513 13.11416495302071
ONEWEB-0102             
1 47258U 20100A   26164.55080499 -.00000578  00000+0 -16427-2 0  9991
2 47258  87.8938 351.3988 0001560  96.6839 263.4467 13.12443190264250
ONEWEB-0109             
1 47259U 20100B   26164.55928000 -.00000178  00000+0 -52944-3 0  9992
2 47259  87.8949 351.3802 0001792  95.3160 264.8173 13.12445102264083
ONEWEB-0110             
1 47260U 20100C   26164.51015605  .00000472  00000+0  12755-2 0  9998
2 47260  87.8948 351.3743 0001549  87.3409 272.7897 13.12444326264241
ONEWEB-0111             
1 47261U 20100D   26164.54063842 -.00000356  00000+0 -10246-2 0  9994
2 47261  87.8948 351.3866 0001772  87.2307 272.9025 13.12440975264085
ONEWEB-0114             
1 47262U 20100E   26164.49490535  .00000238  00000+0  62598-3 0  9997
2 47262  87.8951 351.3935 0001995  95.8867 264.2489 13.12445467264034
ONEWEB-0117             
1 47263U 20100F   26164.56267400  .00000031  00000+0  49476-4 0  9991
2 47263  87.8946 351.3711 0001767  90.1731 269.9600 13.12444797264050
ONEWEB-0118             
1 47264U 20100G   26164.52032199  .00000291  00000+0  77369-3 0  9992
2 47264  87.8947 351.3819 0002112  92.4736 267.6635 13.12441764264241
ONEWEB-0119             
1 47265U 20100H   26164.54573076 -.00000348  00000+0 -10022-2 0  9996
2 47265  87.8937 351.3938 0001810  90.6352 269.4984 13.12443104264226
ONEWEB-0120             
1 47266U 20100J   26164.49335722  .00000190  00000+0  49175-3 0  9990
2 47266  87.8938 351.4057 0001805  96.0046 264.1288 13.12444350264240
ONEWEB-0121             
1 47267U 20100K   26164.55758841 -.00000194  00000+0 -57439-3 0  9997
2 47267  87.8949 351.3787 0001768  80.0878 280.0450 13.12444647264164
ONEWEB-0122             
1 47268U 20100L   26164.55166669 -.00000351  00000+0 -10114-2 0  9992
2 47268  87.8950 351.3838 0001688  95.3550 264.7771 13.12443403264075
ONEWEB-0123             
1 47269U 20100M   26164.54742274 -.00000394  00000+0 -11316-2 0  9996
2 47269  87.8939 351.3926 0001923  90.7627 269.3722 13.12444319264217
ONEWEB-0124             
1 47270U 20100N   26164.53725841 -.00000282  00000+0 -81894-3 0  9993
2 47270  87.8937 351.3977 0001800  87.0634 273.0700 13.12443193264097
ONEWEB-0125             
1 47271U 20100P   26164.51523533  .00000362  00000+0  97160-3 0  9996
2 47271  87.8948 351.3850 0001992  82.4082 277.7273 13.12443881264155
ONEWEB-0126             
1 47272U 20100Q   26164.53571084 -.00000255  00000+0 -74329-3 0  9998
2 47272  87.8941 351.3968 0001842  94.2664 265.8675 13.12441598264225
ONEWEB-0127             
1 47273U 20100R   26164.50168390  .00000350  00000+0  93868-3 0  9991
2 47273  87.8936 351.4027 0001797  94.6003 265.5331 13.12444462264248
ONEWEB-0128             
1 47274U 20100S   26164.52370531  .00000157  00000+0  40026-3 0  9999
2 47274  87.8936 351.4121 0001509  86.3006 273.8295 13.12442308264266
ONEWEB-0129             
1 47275U 20100T   26164.57962092  .00000368  00000+0  98690-3 0  9998
2 47275  87.8947 351.3745 0002253 120.0286 240.1066 13.12443359264207
