OBJECT_NAME,OBJECT_ID,EPOCH,MEAN_MOTION,ECCENTRICITY,INCLINATION,RA_OF_ASC_NODE,ARG_OF_PERICENTER,MEAN_ANOMALY,EPHEMERIS_TYPE,CLASSIFICATION_TYPE,NORAD_CAT_ID,ELEMENT_SET_NO,REV_AT_EPOCH,BSTAR,MEAN_MOTION_DOT,MEAN_MOTION_DDOT
ONEWEB-0068,2020-020Y,2026-06-13T15:26:54.254400,13.11419849,.00017688,87.8900,21.7690,78.5093,281.6234,0,U,45446,999,30213,-.63481575E-3,-.212E-5,0
ONEWEB-0046,2020-020Z,2026-06-13T15:14:52.787616,13.11416686,.00020363,87.8892,21.7770,79.6162,280.5195,0,U,45447,999,30214,-.13627177E-2,-.47E-5,0
ONEWEB-0063,2020-020AA,2026-06-13T14:06:44.192736,13.11419843,.00021319,87.8899,21.7848,86.1333,274.0039,0,U,45448,999,30222,.14246733E-2,.518E-5,0
ONEWEB-0019,2020-020AB,2026-06-13T15:02:29.002848,13.11416293,.00017004,87.8892,21.7636,89.1099,271.0224,0,U,45449,999,30207,-.18192699E-2,-.632E-5,0
ONEWEB-0094,2020-020AC,2026-06-13T15:12:51.499296,13.17647309,.00016296,87.9146,6.5556,84.5955,275.5362,0,U,45450,999,30584,-.10590143E-3,-.28E-6,0
ONEWEB-0087,2020-020AD,2026-06-13T14:20:59.786016,13.11416869,.00017139,87.8908,21.7565,75.8898,284.2420,0,U,45451,999,30211,.14213518E-2,.516E-5,0
ONEWEB-0082,2020-020AE,2026-06-13T14:16:07.760064,13.11417655,.00019187,87.8899,21.7741,70.9223,289.2113,0,U,45452,999,30220,.15228531E-2,.552E-5,0
ONEWEB-0050,2020-020AF,2026-06-13T14:00:50.466816,14.90368033,.00037144,88.9301,233.6995,35.1922,324.9551,0,U,45453,999,33984,.24561762E-3,.241E-4,0
ONEWEB-0034,2020-020AG,2026-06-13T15:10:12.242496,13.11427136,.00017737,87.8897,21.7762,84.7348,275.3983,0,U,45454,999,30212,-.14482975E-2,-.501E-5,0
ONEWEB-0060,2020-020AH,2026-06-13T14:05:19.106880,13.11418783,.00014602,87.8893,21.7834,50.1528,309.9729,0,U,45455,999,30207,.14002139E-2,.509E-5,0
ONEWEB-0086,2020-020AJ,2026-06-13T15:24:27.501408,13.11417396,.00010702,87.8901,21.7678,75.5669,284.5578,0,U,45456,999,30214,-.74483564E-3,-.251E-5,0
ONEWEB-0088,2020-020AK,2026-06-13T14:52:55.113312,13.11416495,.00021948,87.8907,21.7442,80.9863,279.1513,0,U,45457,999,30207,-.99542787E-3,-.34E-5,0
ONEWEB-0102,2020-100A,2026-06-13T13:13:09.551136,13.12443190,.00015608,87.8938,351.3988,96.6839,263.4467,0,U,47258,999,26425,-.16427263E-2,-.578E-5,0
ONEWEB-0109,2020-100B,2026-06-13T13:25:21.792000,13.12445102,.00017927,87.8949,351.3802,95.3160,264.8173,0,U,47259,999,26408,-.52944454E-3,-.178E-5,0
ONEWEB-0110,2020-100C,2026-06-13T12:14:37.482720,13.12444326,.00015491,87.8948,351.3743,87.3409,272.7897,0,U,47260,999,26424,.12755243E-2,.472E-5,0
ONEWEB-0111,2020-100D,2026-06-13T12:58:31.159488,13.12440975,.00017723,87.8948,351.3866,87.2307,272.9025,0,U,47261,999,26408,-.10246129E-2,-.356E-5,0
ONEWEB-0114,2020-100E,2026-06-13T11:52:39.822240,13.12445467,.00019954,87.8951,351.3935,95.8867,264.2489,0,U,47262,999,26403,.62598484E-3,.238E-5,0
ONEWEB-0117,2020-100F,2026-06-13T13:30:15.033600,13.12444797,.00017676,87.8946,351.3711,90.1731,269.9600,0,U,47263,999,26405,.49475758E-4,.31E-6,0
ONEWEB-0118,2020-100G,2026-06-13T12:29:15.819936,13.12441764,.00021128,87.8947,351.3819,92.4736,267.6635,0,U,47264,999,26424,.77368996E-3,.291E-5,0
ONEWEB-0119,2020-100H,2026-06-13T13:05:51.137664,13.12443104,.00018103,87.8937,351.3938,90.6352,269.4984,0,U,47265,999,26422,-.10022283E-2,-.348E-5,0
ONEWEB-0120,2020-100J,2026-06-13T11:50:26.063808,13.12444350,.0001805,87.8938,351.4057,96.0046,264.1288,0,U,47266,999,26424,.49175064E-3,.19E-5,0
ONEWEB-0121,2020-100K,2026-06-13T13:22:55.638624,13.12444647,.00017685,87.8949,351.3787,80.0878,280.0450,0,U,47267,999,26416,-.57438706E-3,-.194E-5,0
ONEWEB-0122,2020-100L,2026-06-13T13:14:24.002016,13.12443403,.00016887,87.8950,351.3838,95.3550,264.7771,0,U,47268,999,26407,-.10114339E-2,-.351E-5,0
ONEWEB-0123,2020-100M,2026-06-13T13:08:17.324736,13.12444319,.00019233,87.8939,351.3926,90.7627,269.3722,0,U,47269,999,26421,-.1131608E-2,-.394E-5,0
ONEWEB-0124,2020-100N,2026-06-13T12:53:39.126624,13.12443193,.00018002,87.8937,351.3977,87.0634,273.0700,0,U,47270,999,26409,-.81894118E-3,-.282E-5,0
ONEWEB-0125,2020-100P,2026-06-13T12:21:56.332512,13.12443881,.00019926,87.8948,351.3850,82.4082,277.7273,0,U,47271,999,26415,.9716042E-3,.362E-5,0
ONEWEB-0126,2020-100Q,2026-06-13T12:51:25.416576,13.12441598,.00018422,87.8941,351.3968,94.2664,265.8675,0,U,47272,999,26422,-.74328533E-3,-.255E-5,0
ONEWEB-0127,2020-100R,2026-06-13T12:02:25.488960,13.12444462,.00017974,87.8936,351.4027,94.6003,265.5331,0,U,47273,999,26424,.93868221E-3,.35E-5,0
ONEWEB-0128,2020-100S,2026-06-13T12:34:08.138784,13.12442308,.00015093,87.8936,351.4121,86.3006,273.8295,0,U,47274,999,26426,.40025578E-3,.157E-5,0
ONEWEB-0129,2020-100T,2026-06-13T13:54:39.247488,13.12443359,.00022538,87.8947,351.3745,120.0286,240.1066,0,U,47275,999,26420,.98689537E-3,.368E-5,0
